[{"OBJECT_NAME":"FOURIER","OBJECT_ID":"2025-185B","EPOCH":"2026-03-09T17:14:49.271712","MEAN_MOTION":14.77345087,"ECCENTRICITY":0.00115317,"INCLINATION":97.9632,"RA_OF_ASC_NODE":153.1639,"ARG_OF_PERICENTER":59.1676,"MEAN_ANOMALY":301.0667,"EPHEMERIS_TYPE":0,"CLASSIFICATION_TYPE":"U","NORAD_CAT_ID":65298,"ELEMENT_SET_NO":999,"REV_AT_EPOCH":2914,"BSTAR":0.0018015505,"MEAN_MOTION_DOT":0.00012782,"MEAN_MOTION_DDOT":0},{"OBJECT_NAME":"FENGYUN 1C DEB","OBJECT_ID":"1999-025MH","EPOCH":"2026-03-09T21:46:02.158752","MEAN_MOTION":14.69020874,"ECCENTRICITY":0.00369439,"INCLINATION":99.3767,"RA_OF_ASC_NODE":42.7498,"ARG_OF_PERICENTER":290.3905,"MEAN_ANOMALY":124.1845,"EPHEMERIS_TYPE":0,"CLASSIFICATION_TYPE":"U","NORAD_CAT_ID":30008,"ELEMENT_SET_NO":999,"REV_AT_EPOCH":339,"BSTAR":0.0021532396,"MEAN_MOTION_DOT":0.00012718,"MEAN_MOTION_DDOT":0}]
